{"type": "FeatureCollection", "features": [{"type": "Feature", "properties": {"norad_id": 28890, "name": "BEIJING 1", "group": "dmc", "lat": 72.42173522198532, "lon": 96.15962182019342, "alt_km": 666.7570795949641, "timestamp": "2025-12-21T22:41:41.114333+00:00", "meta": {"OBJECT_NAME": "BEIJING 1", "OBJECT_ID": "2005-043A", "EPOCH": "2025-12-21T14:09:03.543840", "MEAN_MOTION": 14.63373614, "ECCENTRICITY": 0.001574, "INCLINATION": 98.266, "RA_OF_ASC_NODE": 123.1179, "ARG_OF_PERICENTER": 115.1952, "MEAN_ANOMALY": 245.0884, "EPHEMERIS_TYPE": 0, "CLASSIFICATION_TYPE": "U", "NORAD_CAT_ID": 28890, "ELEMENT_SET_NO": 999, "REV_AT_EPOCH": 7467, "BSTAR": 6.8298607e-05, "MEAN_MOTION_DOT": 3.05e-06, "MEAN_MOTION_DDOT": 0}, "tle": {"line1": "1 28890U 05043A   25355.58962435  .00000305  00000+0  68299-4 0  9996", "line2": "2 28890  98.2660 123.1179 0015740 115.1952 245.0884 14.63373614 74678"}}, "geometry": {"type": "Point", "coordinates": [96.15962182019342, 72.42173522198532]}}, {"type": "Feature", "properties": {"norad_id": 33320, "name": "HUANJING 1A (HJ-1A)", "group": "dmc", "lat": 44.19707284833771, "lon": -23.653805085621407, "alt_km": 604.3050763450901, "timestamp": "2025-12-21T22:41:41.114357+00:00", "meta": {"OBJECT_NAME": "HUANJING 1A (HJ-1A)", "OBJECT_ID": "2008-041A", "EPOCH": "2025-12-21T14:24:01.026432", "MEAN_MOTION": 14.83419753, "ECCENTRICITY": 0.00194861, "INCLINATION": 97.6538, "RA_OF_ASC_NODE": 343.5284, "ARG_OF_PERICENTER": 6.4177, "MEAN_ANOMALY": 353.7283, "EPHEMERIS_TYPE": 0, "CLASSIFICATION_TYPE": "U", "NORAD_CAT_ID": 33320, "ELEMENT_SET_NO": 999, "REV_AT_EPOCH": 93207, "BSTAR": 0.00016380609, "MEAN_MOTION_DOT": 1.298e-05, "MEAN_MOTION_DDOT": 0}, "tle": {"line1": "1 33320U 08041A   25355.60001188  .00001298  00000+0  16381-3 0  9999", "line2": "2 33320  97.6538 343.5284 0019486   6.4177 353.7283 14.83419753932070"}}, "geometry": {"type": "Point", "coordinates": [-23.653805085621407, 44.19707284833771]}}, {"type": "Feature", "properties": {"norad_id": 33321, "name": "HUANJING 1B (HJ-1B)", "group": "dmc", "lat": -65.44089878255213, "lon": 150.45136236991718, "alt_km": 652.5998336475886, "timestamp": "2025-12-21T22:41:41.114372+00:00", "meta": {"OBJECT_NAME": "HUANJING 1B (HJ-1B)", "OBJECT_ID": "2008-041B", "EPOCH": "2025-12-21T15:06:32.251680", "MEAN_MOTION": 14.82843064, "ECCENTRICITY": 0.00380074, "INCLINATION": 97.6397, "RA_OF_ASC_NODE": 347.2304, "ARG_OF_PERICENTER": 47.6189, "MEAN_ANOMALY": 312.8231, "EPHEMERIS_TYPE": 0, "CLASSIFICATION_TYPE": "U", "NORAD_CAT_ID": 33321, "ELEMENT_SET_NO": 999, "REV_AT_EPOCH": 93209, "BSTAR": 0.00012289125, "MEAN_MOTION_DOT": 9.55e-06, "MEAN_MOTION_DDOT": 0}, "tle": {"line1": "1 33321U 08041B   25355.62953995  .00000955  00000+0  12289-3 0  9996", "line2": "2 33321  97.6397 347.2304 0038007  47.6189 312.8231 14.82843064932094"}}, "geometry": {"type": "Point", "coordinates": [150.45136236991718, -65.44089878255213]}}, {"type": "Feature", "properties": {"norad_id": 33446, "name": "YAOGAN-4", "group": "dmc", "lat": 25.749568498346733, "lon": 109.80473961025898, "alt_km": 626.6796102663684, "timestamp": "2025-12-21T22:41:41.114384+00:00", "meta": {"OBJECT_NAME": "YAOGAN-4", "OBJECT_ID": "2008-061A", "EPOCH": "2025-12-21T09:02:40.964928", "MEAN_MOTION": 14.8270568, "ECCENTRICITY": 0.00130663, "INCLINATION": 97.9195, "RA_OF_ASC_NODE": 285.3917, "ARG_OF_PERICENTER": 292.927, "MEAN_ANOMALY": 67.0564, "EPHEMERIS_TYPE": 0, "CLASSIFICATION_TYPE": "U", "NORAD_CAT_ID": 33446, "ELEMENT_SET_NO": 999, "REV_AT_EPOCH": 91931, "BSTAR": 0.00013803316, "MEAN_MOTION_DOT": 1.061e-05, "MEAN_MOTION_DDOT": 0}, "tle": {"line1": "1 33446U 08061A   25355.37686302  .00001061  00000+0  13803-3 0  9995", "line2": "2 33446  97.9195 285.3917 0013066 292.9270  67.0564 14.82705680919316"}}, "geometry": {"type": "Point", "coordinates": [109.80473961025898, 25.749568498346733]}}, {"type": "Feature", "properties": {"norad_id": 35681, "name": "DEIMOS-1", "group": "dmc", "lat": 27.226046309285742, "lon": 152.12077296790443, "alt_km": 642.7624052599967, "timestamp": "2025-12-21T22:41:41.114396+00:00", "meta": {"OBJECT_NAME": "DEIMOS-1", "OBJECT_ID": "2009-041A", "EPOCH": "2025-12-21T14:25:47.187840", "MEAN_MOTION": 14.74963646, "ECCENTRICITY": 0.00025714, "INCLINATION": 97.7145, "RA_OF_ASC_NODE": 155.7918, "ARG_OF_PERICENTER": 65.5267, "MEAN_ANOMALY": 294.6211, "EPHEMERIS_TYPE": 0, "CLASSIFICATION_TYPE": "U", "NORAD_CAT_ID": 35681, "ELEMENT_SET_NO": 999, "REV_AT_EPOCH": 88070, "BSTAR": 3.7212553e-05, "MEAN_MOTION_DOT": 2.03e-06, "MEAN_MOTION_DDOT": 0}, "tle": {"line1": "1 35681U 09041A   25355.60124060  .00000203  00000+0  37213-4 0  9990", "line2": "2 35681  97.7145 155.7918 0002571  65.5267 294.6211 14.74963646880708"}}, "geometry": {"type": "Point", "coordinates": [152.12077296790443, 27.226046309285742]}}, {"type": "Feature", "properties": {"norad_id": 35683, "name": "UK-DMC 2", "group": "dmc", "lat": 63.84887096603277, "lon": 114.25533587604755, "alt_km": 635.9411487995767, "timestamp": "2025-12-21T22:41:41.114407+00:00", "meta": {"OBJECT_NAME": "UK-DMC 2", "OBJECT_ID": "2009-041C", "EPOCH": "2025-12-21T14:15:51.757056", "MEAN_MOTION": 14.75637867, "ECCENTRICITY": 0.0001541, "INCLINATION": 97.8566, "RA_OF_ASC_NODE": 130.2474, "ARG_OF_PERICENTER": 93.3132, "MEAN_ANOMALY": 266.8254, "EPHEMERIS_TYPE": 0, "CLASSIFICATION_TYPE": "U", "NORAD_CAT_ID": 35683, "ELEMENT_SET_NO": 999, "REV_AT_EPOCH": 88037, "BSTAR": 8.1529429e-05, "MEAN_MOTION_DOT": 5.07e-06, "MEAN_MOTION_DDOT": 0}, "tle": {"line1": "1 35683U 09041C   25355.59434904  .00000507  00000+0  81529-4 0  9997", "line2": "2 35683  97.8566 130.2474 0001541  93.3132 266.8254 14.75637867880374"}}, "geometry": {"type": "Point", "coordinates": [114.25533587604755, 63.84887096603277]}}, {"type": "Feature", "properties": {"norad_id": 40715, "name": "DMC3-FM1", "group": "dmc", "lat": 76.38839113114325, "lon": -171.00955871740115, "alt_km": 607.5706162332554, "timestamp": "2025-12-21T22:41:41.114418+00:00", "meta": {"OBJECT_NAME": "DMC3-FM1", "OBJECT_ID": "2015-032A", "EPOCH": "2025-12-21T14:15:29.693952", "MEAN_MOTION": 14.85454271, "ECCENTRICITY": 0.00041247, "INCLINATION": 97.6688, "RA_OF_ASC_NODE": 222.4634, "ARG_OF_PERICENTER": 284.6216, "MEAN_ANOMALY": 75.4542, "EPHEMERIS_TYPE": 0, "CLASSIFICATION_TYPE": "U", "NORAD_CAT_ID": 40715, "ELEMENT_SET_NO": 999, "REV_AT_EPOCH": 56354, "BSTAR": 0.00010001402, "MEAN_MOTION_DOT": 8.11e-06, "MEAN_MOTION_DDOT": 0}, "tle": {"line1": "1 40715U 15032A   25355.59409368  .00000811  00000+0  10001-3 0  9996", "line2": "2 40715  97.6688 222.4634 0004124 284.6216  75.4542 14.85454271563547"}}, "geometry": {"type": "Point", "coordinates": [-171.00955871740115, 76.38839113114325]}}, {"type": "Feature", "properties": {"norad_id": 40716, "name": "DMC3-FM2", "group": "dmc", "lat": -41.05135166842984, "lon": -129.00344919090057, "alt_km": 615.8597369846793, "timestamp": "2025-12-21T22:41:41.114428+00:00", "meta": {"OBJECT_NAME": "DMC3-FM2", "OBJECT_ID": "2015-032B", "EPOCH": "2025-12-21T14:47:52.232064", "MEAN_MOTION": 14.85457257, "ECCENTRICITY": 0.00046691, "INCLINATION": 97.6747, "RA_OF_ASC_NODE": 223.9354, "ARG_OF_PERICENTER": 291.7109, "MEAN_ANOMALY": 68.3609, "EPHEMERIS_TYPE": 0, "CLASSIFICATION_TYPE": "U", "NORAD_CAT_ID": 40716, "ELEMENT_SET_NO": 999, "REV_AT_EPOCH": 56354, "BSTAR": 9.3439075e-05, "MEAN_MOTION_DOT": 7.54e-06, "MEAN_MOTION_DDOT": 0}, "tle": {"line1": "1 40716U 15032B   25355.61657676  .00000754  00000+0  93439-4 0  9990", "line2": "2 40716  97.6747 223.9354 0004669 291.7109  68.3609 14.85457257563545"}}, "geometry": {"type": "Point", "coordinates": [-129.00344919090057, -41.05135166842984]}}, {"type": "Feature", "properties": {"norad_id": 40717, "name": "DMC3-FM3", "group": "dmc", "lat": -22.431858918057124, "lon": 42.69841632238345, "alt_km": 617.6168660741014, "timestamp": "2025-12-21T22:41:41.114438+00:00", "meta": {"OBJECT_NAME": "DMC3-FM3", "OBJECT_ID": "2015-032C", "EPOCH": "2025-12-21T15:19:07.206240", "MEAN_MOTION": 14.85439842, "ECCENTRICITY": 0.00040956, "INCLINATION": 97.6801, "RA_OF_ASC_NODE": 225.5954, "ARG_OF_PERICENTER": 293.1252, "MEAN_ANOMALY": 66.9532, "EPHEMERIS_TYPE": 0, "CLASSIFICATION_TYPE": "U", "NORAD_CAT_ID": 40717, "ELEMENT_SET_NO": 999, "REV_AT_EPOCH": 56355, "BSTAR": -1.7918021e-05, "MEAN_MOTION_DOT": -2.06e-06, "MEAN_MOTION_DDOT": 0}, "tle": {"line1": "1 40717U 15032C   25355.63827785 -.00000206  00000+0 -17918-4 0  9995", "line2": "2 40717  97.6801 225.5954 0004095 293.1252  66.9532 14.85439842563559"}}, "geometry": {"type": "Point", "coordinates": [42.69841632238345, -22.431858918057124]}}]}